54659,ONEWEB-0593,2022,108.94,148.0,+,87.92,Active,1,LEO,USA,UK,Commercial,Communications,Falcon,1 54659U 22166T   24058.49967271  .00000065  00000+0  12555-3 0  9991,2 54659  87.9219  51.3059 0002042  95.1286 265.0081 13.21828235 60484,13.21828235,0.0002042,LEO
54660,ONEWEB-0594,2022,108.94,148.0,+,87.92,Active,1,LEO,USA,UK,Commercial,Communications,Falcon,1 54660U 22166U   24058.51860277  .00000089  00000+0  18493-3 0  9997,2 54660  87.9223  51.2983 0002011  82.3059 277.8303 13.21826124 60504,13.21826124,0.0002011,LEO
54661,ONEWEB-0595,2022,108.94,148.0,+,87.92,Active,1,LEO,USA,UK,Commercial,Communications,Falcon,1 54661U 22166V   24058.49652266 -.00000013  00000+0 -62614-4 0  9996,2 54661  87.9220  51.2925 0001644  82.2828 277.8493 13.21826411 60477,13.21826411,0.0001644,LEO
54662,ONEWEB-0596,2022,108.94,148.0,+,87.92,Active,1,LEO,USA,UK,Commercial,Communications,Falcon,1 54662U 22166W   24058.54540925  .00000096  00000+0  20157-3 0  9995,2 54662  87.9224  51.2861 0001888  99.6619 260.4729 13.21825288 60483,13.21825288,0.0001888,LEO
54663,ONEWEB-0597,2022,108.94,148.0,+,87.92,Active,1,LEO,USA,UK,Commercial,Communications,Falcon,1 54663U 22166X   24058.52647192 -.00004017  00000+0 -97601-2 0  9994,2 54663  87.9225  51.2917 0001866  95.9707 264.1640 13.21846604 60488,13.21846604,0.0001866,LEO
54664,ONEWEB-0600,2022,108.94,148.0,+,87.92,Active,1,LEO,USA,UK,Commercial,Communications,Falcon,1 54664U 22166Y   24058.50913456  .00000050  00000+0  88497-4 0  9998,2 54664  87.9215  51.3420 0002173  91.4323 268.7059 13.21827096 60450,13.21827096,0.0002173,LEO
54665,ONEWEB-0601,2022,108.94,148.0,+,87.92,Active,1,LEO,USA,UK,Commercial,Communications,Falcon,1 54665U 22166Z   24058.50125498  .00000053  00000+0  97174-4 0  9995,2 54665  87.9224  51.2990 0002161 102.3968 257.7408 13.21827672 60643,13.21827672,0.0002161,LEO
54666,ONEWEB-0602,2022,108.94,148.0,+,87.92,Active,1,LEO,USA,UK,Commercial,Communications,Falcon,1 54666U 22166AA  24058.54225924  .00000154  00000+0  34197-3 0  9992,2 54666  87.9224  51.2958 0002158  94.6515 265.4866 13.21826488 60496,13.21826488,0.0002158,LEO
